STARLINK-3161_new
1 19422C 21104Q   21326.14795600 -.00831191  00000-0 -31166-2 0  3263
2 19422  53.2176  90.8306 0024402  64.8792 234.4929 15.87463256    12
STARLINK-3161_old
1 29422C 21104Q   21324.87625130 -.00830342  00000-0 -27103-2 0  3242
2 29422  53.2173  97.2686 0034344  63.2822 158.8677 15.89697853    17
